{"type": "FeatureCollection", "features": [ {"type": "Feature", "properties": {"norad_id": 41774, "name": "SKYSAT-C3", "group": "resource", "lat": 82.91694874471057, "lon": -54.464796074157654, "alt_km": 424.1912505093251, "timestamp": "2025-12-16T03:53:26.716312+00:00", "meta": {"OBJECT_NAME": "SKYSAT-C3", "OBJECT_ID": "2016-058E", "EPOCH": "2025-12-15T08:50:59.272512", "MEAN_MOTION": 15.44496263, "ECCENTRICITY": 0.00017492, "INCLINATION": 96.9303, "RA_OF_ASC_NODE": 22.9925, "ARG_OF_PERICENTER": 108.9377, "MEAN_ANOMALY": 251.2062, "EPHEMERIS_TYPE": 0, "CLASSIFICATION_TYPE": "U", "NORAD_CAT_ID": 41774, "ELEMENT_SET_NO": 999, "REV_AT_EPOCH": 51766, "BSTAR": 0.00028666899, "MEAN_MOTION_DOT": 0.00013211, "MEAN_MOTION_DDOT": 0}, "tle": {"line1": "1 41774U 16058E   25349.36874158  .00013211  00000+0  28667-3 0  9997", "line2": "2 41774  96.9303  22.9925 0001749 108.9377 251.2062 15.44496263517667"}}, "geometry": {"type": "Point", "coordinates": [-54.464796074157654, 82.91694874471057]}}, {"type": "Feature", "properties": {"norad_id": 41785, "name": "ALSAT 1B", "group": "resource", "lat": 42.58451080550323, "lon": -170.97503236641197, "alt_km": 645.4667690096385, "timestamp": "2025-12-16T03:53:26.716323+00:00", "meta": {"OBJECT_NAME": "ALSAT 1B", "OBJECT_ID": "2016-059C", "EPOCH": "2025-12-15T07:41:46.020192", "MEAN_MOTION": 14.72079101, "ECCENTRICITY": 0.0010768, "INCLINATION": 97.7819, "RA_OF_ASC_NODE": 0.9996, "ARG_OF_PERICENTER": 95.9445, "MEAN_ANOMALY": 264.2991, "EPHEMERIS_TYPE": 0, "CLASSIFICATION_TYPE": "U", "NORAD_CAT_ID": 41785, "ELEMENT_SET_NO": 999, "REV_AT_EPOCH": 49352, "BSTAR": 0.00010061204, "MEAN_MOTION_DOT": 5.86e-06, "MEAN_MOTION_DDOT": 0}, "tle": {"line1": "1 41785U 16059C   25349.32067153  .00000586  00000+0  10061-3 0  9995", "line2": "2 41785  97.7819   0.9996 0010768  95.9445 264.2991 14.72079101493527"}}, "geometry": {"type": "Point", "coordinates": [-170.97503236641197, 42.58451080550323]}}, {"type": "Feature", "properties": {"norad_id": 41787, "name": "PATHFINDER 1", "group": "resource", "lat": 22.458864194253813, "lon": 176.03108494129347, "alt_km": 667.9744282839602, "timestamp": "2025-12-16T03:53:26.716334+00:00", "meta": {"OBJECT_NAME": "PATHFINDER 1", "OBJECT_ID": "2016-059E", "EPOCH": "2025-12-14T23:21:25.864128", "MEAN_MOTION": 14.67324826, "ECCENTRICITY": 0.003, "INCLINATION": 97.8138, "RA_OF_ASC_NODE": 351.6432, "ARG_OF_PERICENTER": 74.4434, "MEAN_ANOMALY": 286.0079, "EPHEMERIS_TYPE": 0, "CLASSIFICATION_TYPE": "U", "NORAD_CAT_ID": 41787, "ELEMENT_SET_NO": 999, "REV_AT_EPOCH": 49269, "BSTAR": 0.00015861249, "MEAN_MOTION_DOT": 8.55e-06, "MEAN_MOTION_DDOT": 0}, "tle": {"line1": "1 41787U 16059E   25348.97321602  .00000855  00000+0  15861-3 0  9991", "line2": "2 41787  97.8138 351.6432 0030000  74.4434 286.0079 14.67324826492693"}}, "geometry": {"type": "Point", "coordinates": [176.03108494129347, 22.458864194253813]}}, {"type": "Feature", "properties": {"norad_id": 41790, "name": "SCATSAT 1", "group": "resource", "lat": -66.13044074881712, "lon": 65.76330589645298, "alt_km": 679.273152470123, "timestamp": "2025-12-16T03:53:26.716344+00:00", "meta": {"OBJECT_NAME": "SCATSAT 1", "OBJECT_ID": "2016-059H", "EPOCH": "2025-12-15T03:50:30.741792", "MEAN_MOTION": 14.78946123, "ECCENTRICITY": 0.00563614, "INCLINATION": 98.1466, "RA_OF_ASC_NODE": 45.8607, "ARG_OF_PERICENTER": 120.3431, "MEAN_ANOMALY": 240.337, "EPHEMERIS_TYPE": 0, "CLASSIFICATION_TYPE": "U", "NORAD_CAT_ID": 41790, "ELEMENT_SET_NO": 999, "REV_AT_EPOCH": 7438, "BSTAR": 0.00018396145, "MEAN_MOTION_DOT": 1.337e-05, "MEAN_MOTION_DDOT": 0}, "tle": {"line1": "1 41790U 16059H   25349.16007803  .00001337  00000+0  18396-3 0  9993", "line2": "2 41790  98.1466  45.8607 0056361 120.3431 240.3370 14.78946123 74388"}}, "geometry": {"type": "Point", "coordinates": [65.76330589645298, -66.13044074881712]}}, {"type": "Feature", "properties": {"norad_id": 41875, "name": "GOKTURK 1A", "group": "resource", "lat": 1.581035054032675, "lon": 62.708067665912274, "alt_km": 687.1500113383399, "timestamp": "2025-12-16T03:53:26.716355+00:00", "meta": {"OBJECT_NAME": "GOKTURK 1A", "OBJECT_ID": "2016-073A", "EPOCH": "2025-12-15T07:22:41.556288", "MEAN_MOTION": 14.62784231, "ECCENTRICITY": 0.0001241, "INCLINATION": 98.1428, "RA_OF_ASC_NODE": 241.6386, "ARG_OF_PERICENTER": 79.4934, "MEAN_ANOMALY": 280.6407, "EPHEMERIS_TYPE": 0, "CLASSIFICATION_TYPE": "U", "NORAD_CAT_ID": 41875, "ELEMENT_SET_NO": 999, "REV_AT_EPOCH": 48194, "BSTAR": 0.00015452215, "MEAN_MOTION_DOT": 7.41e-06, "MEAN_MOTION_DDOT": 0}, "tle": {"line1": "1 41875U 16073A   25349.30742542  .00000741  00000+0  15452-3 0  9993", "line2": "2 41875  98.1428 241.6386 0001241  79.4934 280.6407 14.62784231481944"}}, "geometry": {"type": "Point", "coordinates": [62.708067665912274, 1.581035054032675]}}, {"type": "Feature", "properties": {"norad_id": 41877, "name": "RESOURCESAT-2A", "group": "resource", "lat": 77.17889713384729, "lon": 17.252476925768228, "alt_km": 813.4705492544308, "timestamp": "2025-12-16T03:53:26.716366+00:00", "meta": {"OBJECT_NAME": "RESOURCESAT-2A", "OBJECT_ID": "2016-074A", "EPOCH": "2025-12-15T08:55:54.429600", "MEAN_MOTION": 14.21601346, "ECCENTRICITY": 0.00012141, "INCLINATION": 98.7755, "RA_OF_ASC_NODE": 59.2125, "ARG_OF_PERICENTER": 241.5478, "MEAN_ANOMALY": 118.5577, "EPHEMERIS_TYPE": 0, "CLASSIFICATION_TYPE": "U", "NORAD_CAT_ID": 41877, "ELEMENT_SET_NO": 999, "REV_AT_EPOCH": 46818, "BSTAR": 0.00010903717, "MEAN_MOTION_DOT": 1.95e-06, "MEAN_MOTION_DDOT": 0}, "tle": {"line1": "1 41877U 16074A   25349.37215775  .00000195  00000+0  10904-3 0  9996", "line2": "2 41877  98.7755  59.2125 0001214 241.5478 118.5577 14.21601346468182"}}, "geometry": {"type": "Point", "coordinates": [17.252476925768228, 77.17889713384729]}}, {"type": "Feature", "properties": {"norad_id": 41948, "name": "CARTOSAT-2D", "group": "resource", "lat": -28.267977012308517, "lon": -136.4213010756199, "alt_km": 512.0689335771413, "timestamp": "2025-12-16T03:53:26.716376+00:00", "meta": {"OBJECT_NAME": "CARTOSAT-2D", "OBJECT_ID": "2017-008A", "EPOCH": "2025-12-15T08:00:29.517408", "MEAN_MOTION": 15.19288839, "ECCENTRICITY": 0.00048961, "INCLINATION": 97.4391, "RA_OF_ASC_NODE": 46.7917, "ARG_OF_PERICENTER": 153.8561, "MEAN_ANOMALY": 206.2922, "EPHEMERIS_TYPE": 0, "CLASSIFICATION_TYPE": "U", "NORAD_CAT_ID": 41948, "ELEMENT_SET_NO": 999, "REV_AT_EPOCH": 48966, "BSTAR": 0.00018722598, "MEAN_MOTION_DOT": 3.883e-05, "MEAN_MOTION_DDOT": 0}, "tle": {"line1": "1 41948U 17008A   25349.33367497  .00003883  00000+0  18723-3 0  9992", "line2": "2 41948  97.4391  46.7917 0004896 153.8561 206.2922 15.19288839489661"}}, "geometry": {"type": "Point", "coordinates": [-136.4213010756199, -28.267977012308517]}}, {"type": "Feature", "properties": {"norad_id": 42063, "name": "SENTINEL-2B", "group": "resource", "lat": 17.121600278412608, "lon": -114.77733171891899, "alt_km": 789.1942374277232, "timestamp": "2025-12-16T03:53:26.716386+00:00", "meta": {"OBJECT_NAME": "SENTINEL-2B", "OBJECT_ID": "2017-013A", "EPOCH": "2025-12-15T08:40:19.148736", "MEAN_MOTION": 14.30817286, "ECCENTRICITY": 0.00011592, "INCLINATION": 98.5713, "RA_OF_ASC_NODE": 61.7703, "ARG_OF_PERICENTER": 93.9286, "MEAN_ANOMALY": 266.203, "EPHEMERIS_TYPE": 0, "CLASSIFICATION_TYPE": "U", "NORAD_CAT_ID": 42063, "ELEMENT_SET_NO": 999, "REV_AT_EPOCH": 45835, "BSTAR": 5.7232079e-05, "MEAN_MOTION_DOT": 1.06e-06, "MEAN_MOTION_DDOT": 0}, "tle": {"line1": "1 42063U 17013A   25349.36133274  .00000106  00000+0  57232-4 0  9998", "line2": "2 42063  98.5713  61.7703 0001159  93.9286 266.2030 14.30817286458351"}}, "geometry": {"type": "Point", "coordinates": [-114.77733171891899, 17.121600278412608]}}, {"type": "Feature", "properties": {"norad_id": 42767, "name": "CARTOSAT-2E", "group": "resource", "lat": 60.62484899643751, "lon": -118.84205106245689, "alt_km": 502.62635085910915, "timestamp": "2025-12-16T03:53:26.716396+00:00", "meta": {"OBJECT_NAME": "CARTOSAT-2E", "OBJECT_ID": "2017-036C", "EPOCH": "2025-12-15T08:24:07.349184", "MEAN_MOTION": 15.19230477, "ECCENTRICITY": 0.00020539, "INCLINATION": 97.4562, "RA_OF_ASC_NODE": 46.9025, "ARG_OF_PERICENTER": 225.2184, "MEAN_ANOMALY": 134.8884, "EPHEMERIS_TYPE": 0, "CLASSIFICATION_TYPE": "U", "NORAD_CAT_ID": 42767, "ELEMENT_SET_NO": 999, "REV_AT_EPOCH": 47023, "BSTAR": 0.00023252692, "MEAN_MOTION_DOT": 4.83e-05, "MEAN_MOTION_DDOT": 0}, "tle": {"line1": "1 42767U 17036C   25349.35008506  .00004830  00000+0  23253-3 0  9995", "line2": "2 42767  97.4562  46.9025 0002053 225.2184 134.8884 15.19230477470232"}}, "geometry": {"type": "Point", "coordinates": [-118.84205106245689, 60.62484899643751]}}, {"type": "Feature", "properties": {"norad_id": 42920, "name": "FORMOSAT-5", "group": "resource", "lat": 52.201793134147216, "lon": 53.638386419787, "alt_km": 721.8694770540997, "timestamp": "2025-12-16T03:53:26.716408+00:00", "meta": {"OBJECT_NAME": "FORMOSAT-5", "OBJECT_ID": "2017-049A", "EPOCH": "2025-12-15T07:47:14.601120", "MEAN_MOTION": 14.51007011, "ECCENTRICITY": 0.00098157, "INCLINATION": 98.2452, "RA_OF_ASC_NODE": 63.5922, "ARG_OF_PERICENTER": 286.6151, "MEAN_ANOMALY": 73.3966, "EPHEMERIS_TYPE": 0, "CLASSIFICATION_TYPE": "U", "NORAD_CAT_ID": 42920, "ELEMENT_SET_NO": 999, "REV_AT_EPOCH": 44001, "BSTAR": 7.0006354e-05, "MEAN_MOTION_DOT": 2.33e-06, "MEAN_MOTION_DDOT": 0}, "tle": {"line1": "1 42920U 17049A   25349.32447455  .00000233  00000+0  70006-4 0  9999", "line2": "2 42920  98.2452  63.5922 0009815 286.6151  73.3966 14.51007011440011"}}, "geometry": {"type": "Point", "coordinates": [53.638386419787, 52.201793134147216]}}]}